OBJECT_NAME,OBJECT_ID,EPOCH,MEAN_MOTION,ECCENTRICITY,INCLINATION,RA_OF_ASC_NODE,ARG_OF_PERICENTER,MEAN_ANOMALY,EPHEMERIS_TYPE,CLASSIFICATION_TYPE,NORAD_CAT_ID,ELEMENT_SET_NO,REV_AT_EPOCH,BSTAR,MEAN_MOTION_DOT,MEAN_MOTION_DDOT
CUTE-1 (CO-55),2003-031E,2026-06-18T00:29:44.023488,14.24336174,.00096097,98.6736,177.5689,175.5784,184.5482,0,U,27844,999,19179,.11471233E-3,.221E-5,0
CUBESAT XI-IV (CO-57),2003-031J,2026-06-17T22:32:30.413760,14.23621196,.0009073,98.6765,177.2007,194.7196,165.3719,0,U,27848,999,19148,.10079477E-3,.186E-5,0
CUBESAT XI-V,2005-043F,2026-06-17T22:42:29.709216,14.72633352,.00137043,98.2987,324.5839,198.2082,161.8635,0,U,28895,999,10186,.18286399E-3,.1113E-4,0
CUTE-1.7+APD II (CO-65),2008-021C,2026-06-18T13:47:24.204480,15.09461529,.00096106,97.8275,151.0219,34.4891,325.6959,0,U,32785,999,98540,.27313031E-3,.431E-4,0
CANX-2,2008-021H,2026-06-17T21:16:22.678176,15.05623552,.00114189,97.8640,148.6774,48.7586,311.4622,0,U,32790,999,98491,.25994567E-3,.369E-4,0
SEEDS II (CO-66),2008-021J,2026-06-18T10:35:22.533792,15.32786684,.00008895,97.7517,167.3987,357.5135,2.6101,0,U,32791,999,98748,.44622341E-3,.14056E-3,0
SWISSCUBE,2009-051B,2026-06-18T06:19:12.531072,14.62483386,.00060307,98.4034,77.1704,199.2833,160.8141,0,U,35932,999,88931,.15894108E-3,.756E-5,0
BEESAT-1,2009-051C,2026-06-18T14:46:27.732864,14.61722485,.00043037,98.3962,77.1613,211.4953,148.5991,0,U,35933,999,88939,.13727878E-3,.635E-5,0
ITUPSAT1,2009-051E,2026-06-18T04:43:11.614080,14.60442029,.00062858,98.4047,75.9267,230.1057,129.9590,0,U,35935,999,88888,.13197175E-3,.591E-5,0
TISAT 1,2010-035E,2026-06-18T07:01:54.736032,15.31742601,.00015448,98.0713,115.9399,166.4985,193.6296,0,U,36799,999,86787,.50955387E-3,.15546E-3,0
AEROCUBE 4.5A,2012-048K,2026-06-17T23:25:57.113472,15.96962877,.00196435,64.6231,23.9913,225.6747,134.2807,0,U,38767,999,37278,.10008634E-2,.442913E-2,.87797932E-4
STRAND-1,2013-009E,2026-06-18T10:45:45.548640,14.37163853,.00077936,98.3922,349.6518,221.0490,139.0111,0,U,39090,999,69724,.80675814E-4,.197E-5,0
BRITE-AUSTRIA,2013-009F,2026-06-18T07:44:29.219424,14.36542508,.00091905,98.3995,348.7301,232.6910,127.3439,0,U,39091,999,69721,.58245794E-4,.128E-5,0
NEE-01 PEGASO,2013-018B,2026-06-18T08:05:56.562144,14.93664438,.00132204,98.1225,313.5252,155.6183,204.5663,0,U,39151,999,71087,.22456248E-3,.2315E-4,0
POPACS 2,2013-055E,2026-06-17T21:57:03.578400,14.91227563,.04168149,80.9908,143.3595,191.4338,167.7191,0,U,39269,999,66332,.21015957E-3,.12434E-3,0
POPACS 3,2013-055F,2026-06-18T10:12:00.373248,14.56141061,.05520487,81.0003,227.8457,66.2304,299.5770,0,U,39270,999,63873,.18030203E-3,.768E-4,0
ZACUBE-1 (TSHEPISOSAT),2013-066B,2026-06-18T08:10:15.916800,15.01194004,.00409492,97.8077,131.6833,243.7163,115.9851,0,U,39417,999,68090,.18680558E-3,.2374E-4,0
WNISAT-1,2013-066H,2026-06-18T09:03:57.057408,14.58064055,.01620332,97.7203,318.4495,227.8152,130.9197,0,U,39423,999,66690,.14229667E-3,.733E-5,0
TRITON-1,2013-066M,2026-06-18T13:53:21.528096,14.81709946,.00885338,97.8250,79.3544,229.3058,130.0439,0,U,39427,999,67429,.20136738E-3,.1639E-4,0
GOMX-1,2013-066Q,2026-06-18T14:46:55.670304,14.69465758,.01301631,97.6475,9.9882,72.9901,288.5521,0,U,39430,999,67012,.26533468E-3,.174E-4,0
CUBEBUG-2 (LO-74),2013-066AA,2026-06-18T14:29:33.447840,14.93772226,.00583063,97.8910,118.5878,24.5043,335.8927,0,U,39440,999,67720,.37368529E-3,.4033E-4,0
NEE-02 KRYSAOR,2013-066AB,2026-06-18T13:19:42.663360,14.86622868,.00676038,97.8893,108.7601,65.8333,294.9931,0,U,39441,999,67640,.19825155E-3,.1775E-4,0
FUNCUBE-1 (AO-73),2013-066AE,2026-06-18T09:10:33.179808,15.09501889,.00357367,97.8280,140.8531,196.6039,163.4022,0,U,39444,999,67984,.3027358E-3,.4855E-4,0
UWE-3,2013-066AG,2026-06-18T14:51:46.986912,14.97034048,.0047372,97.8699,125.7026,316.3669,43.3811,0,U,39446,999,67779,.31072148E-3,.3597E-4,0
BRITE-CA1 (TORONTO),2014-033L,2026-06-18T14:24:43.876512,14.72678402,.00772134,97.9742,298.5023,272.4058,86.8311,0,U,40020,999,64242,.93677348E-4,.571E-5,0
DUCHIFAT-1,2014-033M,2026-06-18T10:17:11.174784,15.64804181,.00028843,98.0449,228.7634,114.5006,245.6553,0,U,40021,999,65594,.88744814E-3,.87001E-3,0
NANOSATC-BR1,2014-033Q,2026-06-18T01:18:56.496384,15.31480608,.00044904,98.0715,201.5196,160.3673,199.7740,0,U,40024,999,65411,.43893886E-3,.13269E-3,0
QB50P1,2014-033R,2026-06-18T14:24:00.295488,15.18277268,.00079826,98.0962,180.8451,209.9659,150.1117,0,U,40025,999,65324,.30543944E-3,.6188E-4,0
QB50P2,2014-033Y,2026-06-18T10:06:07.120800,15.15170873,.00081309,98.0750,166.3777,159.5672,200.5885,0,U,40032,999,65285,.30212253E-3,.5598E-4,0
PERSEUS-M2,2014-033AD,2026-06-18T14:26:54.367296,14.95511437,.00105328,97.9965,120.1714,298.8231,61.1931,0,U,40037,999,65099,.10439042E-3,.1096E-4,0
